BEIDOU-2 IGSO-5         
1 37948U 11073A   26169.66754444 -.00000192  00000+0  00000+0 0  9998
2 37948  47.6748 271.5267 0113971 221.7702 105.6518  1.00272695 53143
LUCH-5A                 
1 37951U 11074B   26170.58005486 -.00000059  00000+0  00000+0 0  9993
2 37951   8.7611  73.7727 0002394  28.2637 181.5175  1.00270641 53073
BEIDOU-2 G5             
1 38091U 12008A   26170.76201402  .00000051  00000+0  00000+0 0  9994
2 38091   3.5812  69.6863 0009045 272.9388 258.3397  1.00272633 52397
BEIDOU-2 M3             
1 38250U 12018A   26170.33652661 -.00000083  00000+0  00000+0 0  9998
2 38250  55.7558 304.8029 0020148 273.7070  86.0544  1.86229615 95980
BEIDOU-2 M4             
1 38251U 12018B   26170.26882991 -.00000082  00000+0  00000+0 0  9991
2 38251  55.6560 304.0191 0011331 275.2642  84.5989  1.86229271 95985
SES-5                   
1 38652U 12036A   26170.39494258  .00000027  00000+0  00000+0 0  9993
2 38652   0.0451 317.4240 0001795 130.6144 326.7286  1.00271228 44474
BEIDOU-2 M6             
1 38775U 12050B   26169.97856022 -.00000060  00000+0  00000+0 0  9996
2 38775  56.5458  62.8350 0013637 357.7339   2.3019  1.86230903 93342
GSAT-10                 
1 38779U 12051B   26170.05391994 -.00000171  00000+0  00000+0 0  9997
2 38779   0.0753 261.8445 0007768 186.2684 281.5912  1.00272138 50113
NAVSTAR 67 (USA 239)    
1 38833U 12053A   26170.31045860  .00000052  00000+0  00000+0 0  9994
2 38833  53.5865 143.5123 0180440  65.7868 296.0554  2.00567484 99482
GSAT0103 (GALILEO-FM3)  
1 38857U 12055A   26168.47561804 -.00000011  00000+0  00000+0 0  9993
2 38857  55.8068 101.5377 0004771 306.3432  53.5821  1.70473345 85011
BEIDOU-2 G6             
1 38953U 12059A   26170.62444088 -.00000183  00000+0  00000+0 0  9998
2 38953   4.4288  73.4968 0009630 324.4164 178.7711  1.00271608 49937
LUCH-5B                 
1 38977U 12061A   26169.89176601 -.00000148  00000+0  00000+0 0  9998
2 38977  10.4892  49.8655 0002465 150.1855  11.8366  1.00272094 49620
COSMOS 2485 [GLONASS-M] 
1 39155U 13019A   26167.91000455 -.00000020  00000+0  00000+0 0  9994
2 39155  65.4195  73.6140 0023135 234.1379 125.6814  2.13103258102273
NAVSTAR 68 (USA 242)    
1 39166U 13023A   26170.17748899 -.00000047  00000+0  00000+0 0  9993
2 39166  54.5024 268.8925 0141507  51.0502 310.2406  2.00563419 95929
IRNSS-1A                
1 39199U 13034A   26169.89544831  .00000051  00000+0  00000+0 0  9992
2 39199  35.7241  63.8469 0017589 183.2529  37.3106  1.00275723 47380
NAVSTAR 69 (USA 248)    
1 39533U 14008A   26170.67773285  .00000058  00000+0  00000+0 0  9998
2 39533  53.6551 149.2181 0084220 231.3098 127.9099  2.00559931 89736
ASTRA 5B                
1 39617U 14011B   26170.77336436  .00000131  00000+0  00000+0 0  9991
2 39617   0.0645 311.7480 0002089 114.0747 144.0785  1.00268563 44693
COSMOS 2492 [GLONASS-M] 
1 39620U 14012A   26169.27664962 -.00000055  00000+0  00000+0 0  9993
2 39620  65.2971 313.8989 0010348 324.5914  35.3281  2.13103143 95269
IRNSS-1B                
1 39635U 14017A   26170.76140735  .00000109  00000+0  00000+0 0  9996
2 39635  28.9179 240.3593 0023151 189.6008 167.3236  1.00277178 44812
LUCH-5V                 
1 39727U 14023A   26170.76914560 -.00000276  00000+0  00000+0 0  9996
2 39727   5.1398  69.7202 0001892  49.9743 159.9136  1.00273433 44384
NAVSTAR 70 (USA 251)    
1 39741U 14026A   26169.95608637 -.00000088  00000+0  00000+0 0  9990
2 39741  56.4974 331.4485 0038172 326.5493  33.2021  2.00560795 88575
COSMOS 2500 [GLONASS-M] 
1 40001U 14032A   26170.85415876 -.00000060  00000+0  00000+0 0  9990
2 40001  65.2308 313.5924 0007432 184.8024 175.1825  2.13105731 93511
NAVSTAR 71 (USA 256)    
1 40105U 14045A   26170.04787567 -.00000020  00000+0  00000+0 0  9995
2 40105  55.3543  88.3908 0033392 118.2387 242.1042  2.00558492 86119
GSAT0201 (GALILEO 5)    
1 40128U 14050A   26170.57286914 -.00000074  00000+0  00000+0 0  9993
2 40128  48.8729 273.3385 1674923 179.4838 180.7636  1.85520003 78367
GSAT0202 (GALILEO 6)    
1 40129U 14050B   26169.21145487 -.00000058  00000+0  00000+0 0  9994
2 40129  48.8910 272.4799 1675952 180.1594 179.8332  1.85520552 80500
IRNSS-1C                
1 40269U 14061A   26170.79126230 -.00000168  00000+0  00000+0 0  9993
2 40269   6.5240  88.8821 0022682   2.7462 184.1889  1.00268918 42714
NAVSTAR 72 (USA 258)    
1 40294U 14068A   26168.92054840 -.00000079  00000+0  00000+0 0  9998
2 40294  56.9881  30.9264 0067071  70.6155 290.1646  2.00576133 85229
COSMOS 2501 [GLONASS-K] 
1 40315U 14075A   26170.17773414  .00000057  00000+0  00000+0 0  9990
2 40315  63.6164 190.3031 0022630 212.5045 147.3980  2.13101225 89893
NAVSTAR 73 (USA 260)    
1 40534U 15013A   26170.55546011  .00000033  00000+0  00000+0 0  9993
2 40534  53.1677 204.0796 0109583  40.1503 320.7125  2.00551230 81876
GSAT0203 (GALILEO 7)    
1 40544U 15017A   26168.79938999 -.00000091  00000+0  00000+0 0  9996
2 40544  56.7854 341.5787 0002098 276.4201  83.5494  1.70476090 69215
GSAT0204 (GALILEO 8)    
1 40545U 15017B   26170.22835249 -.00000094  00000+0  00000+0 0  9995
2 40545  56.7938 341.5583 0001942 246.6758 113.2973  1.70475686 32286
